OPS 6582 (TRANSIT 5B-5) 
1 00965U 64083D   22316.93193859  .00000070  00000+0  84253-4 0  9994
2 00965  90.0322 195.9147 0041801 152.5808 220.1467 13.56793508865656
OSCAR 7 (AO-7)          
1 07530U 74089B   22316.92778932 -.00000045  00000+0  53197-5 0  9993
2 07530 101.9246 297.3624 0012394 116.5049 302.3751 12.53658511196079
UOSAT 2 (UO-11)         
1 14781U 84021B   22316.87887993  .00001222  00000+0  15293-3 0  9998
2 14781  97.6337 297.6917 0008014 182.6542 177.4632 14.83965288 62057
NOAA 9                  
1 15427U 84123A   22316.88610267  .00000126  00000+0  86789-4 0  9999
2 15427  99.0656 291.7357 0015775 103.7915 315.7949 14.16244276957625
LUSAT (LO-19)           
1 20442U 90005G   22316.88601248  .00000172  00000+0  79549-4 0  9994
2 20442  98.8154 284.1610 0012861  92.8100 267.4555 14.33111793714367
ITAMSAT (IO-26)         
1 22826U 93061D   22316.81772069  .00000109  00000+0  59589-4 0  9992
2 22826  98.8666 350.7603 0008399 331.7411  28.3314 14.30559620519627
RADIO ROSTO (RS-15)     
1 23439U 94085A   22316.95282412 -.00000039  00000+0  10000-3 0  9990
2 23439  64.8150 265.4266 0167513 247.3510 110.9623 11.27573464148233
JAS-2 (FO-29)           
1 24278U 96046B   22316.90933199 -.00000031  00000+0  71422-5 0  9990
2 24278  98.5142 320.1586 0349247 258.0440  98.1354 13.53124252295689
NOAA 15                 
1 25338U 98030A   22317.15461035  .00000165  00000+0  86910-4 0  9990
2 25338  98.6309 344.6575 0009707 219.3975 140.6500 14.26195515274469
TECHSAT 1B (GO-32)      
1 25397U 98043D   22316.78072709  .00000107  00000+0  66508-4 0  9990
2 25397  98.8376 267.7619 0002173  61.0292 299.1104 14.23787282264530
ISS (ZARYA)             
1 25544U 98067A   22317.26600700  .00010874  00000+0  19832-3 0  9991
2 25544  51.6436 318.0751 0006976  67.8194  30.8586 15.49973837368301
ORSTED                  
1 25635U 99008B   22316.79888241  .00000457  00000+0  11450-3 0  9997
2 25635  96.4432 146.8825 0139541  67.9178 293.6771 14.48597209251750
PHASE 3D (AO-40)        
1 26609U 00072B   22316.66765488 -.00000023  00000+0  00000+0 0  9990
2 26609   5.4692 232.7537 7969129  80.8588 352.2429  1.25588748101018
PCSAT (NO-44)           
1 26931U 01043C   22316.86073444  .00000178  00000+0  99357-4 0  9991
2 26931  67.0532  35.3199 0005247 265.2656  94.7846 14.30762318102631
SAUDISAT 1C (SO-50)     
1 27607U 02058C   22316.88252842  .00000981  00000+0  15368-3 0  9993
2 27607  64.5546 207.6059 0081349 266.2136  92.9662 14.76409548 70283
CUTE-1 (CO-55)          
1 27844U 03031E   22316.91224505  .00000308  00000+0  15729-3 0  9991
2 27844  98.6803 322.3767 0010467  37.4504 322.7401 14.22537882  4984
CUBESAT XI-IV (CO-57)   
1 27848U 03031J   22316.78123724  .00000274  00000+0  14328-3 0  9997
2 27848  98.6844 322.7330 0010590  51.2496 308.9627 14.22082940  4744
MOZHAYETS 4 (RS-22)     
1 27939U 03042A   22317.11105794  .00001166  00000+0  21378-3 0  9999
2 27939  98.2139  98.0031 0013912  98.7284 261.5483 14.67610980 22846
INMARSAT 4-F1           
1 28628U 05009A   22316.61682316 -.00000251  00000+0  00000+0 0  9994
2 28628   3.7245  36.5302 0003219 202.1142 178.6580  1.00274566 64517
NOAA 18                 
1 28654U 05018A   22317.14531472  .00000177  00000+0  11920-3 0  9991
2 28654  98.9351  27.3608 0013277 270.8565  89.1086 14.12806122901066
CUBESAT XI-V            
1 28895U 05043F   22317.12567086  .00001246  00000+0  24295-3 0  9991
2 28895  98.1272  86.4134 0017134  36.8708 323.3669 14.64654178909407
METOP-A                 
1 29499U 06044A   22316.89572755  .00001506  00000+0  20773-3 0  9992
2 29499  98.4336   6.1213 0195761 262.4595 272.6398 14.67571763832448
CARTOSAT-2 (IRS-P7)     
1 29710U 07001B   22316.86027081  .00022143  00000+0  49008-3 0  9998
2 29710  97.8768  71.5115 0136046 255.1101 103.5042 15.34516631858956
FALCONSAT-3             
1 30776U 07006E   22316.81922275  .00115040  00000+0  85393-3 0  9997
2 30776  35.4278 359.0420 0005224 137.5804 222.5338 15.71513608872760
CAPE-1                  
1 31130U 07012P   22317.10136985  .00000954  00000+0  20862-3 0  9994
2 31130  98.2838 256.7368 0094172 191.9578 167.9385 14.57417091826732
CARTOSAT-2A             
1 32783U 08021A   22317.15748516  .00001015  00000+0  14540-3 0  9999
2 32783  97.9477  15.7438 0013548  51.6254 308.6166 14.78678186784993
CUTE-1.7+APD II (CO-65) 
1 32785U 08021C   22317.12876796  .00002922  00000+0  30640-3 0  9997
2 32785  97.6783 283.4680 0014356  99.3971 260.8871 14.90220166788696
COMPASS-1               
1 32787U 08021E   22316.90810996  .00005318  00000+0  46552-3 0  9995
2 32787  97.5808 294.0448 0012404  18.7707 341.3970 14.97060732790303
AAUSAT-II               
1 32788U 08021F   22316.92226204  .00005764  00000+0  48039-3 0  9998
2 32788  97.5513 297.2209 0011315 355.2849   4.8265 14.98945344790763
DELFI-C3 (DO-64)        
1 32789U 08021G   22316.85043032  .00017979  00000+0  88761-3 0  9994
2 32789  97.3282 338.0526 0010204 154.7753 205.3981 15.17892489794404
SEEDS II (CO-66)        
1 32791U 08021J   22316.89047219  .00004093  00000+0  39235-3 0  9997
2 32791  97.6313 288.5830 0014422  59.5216 300.7426 14.93598704789420
YUBILEINY (RS-30)       
1 32953U 08025A   22317.19073309  .00000024  00000+0  10000-3 0  9993
2 32953  82.5002  91.4358 0018687 296.2793  63.6363 12.43115229656812
FENGYUN 3A              
1 32958U 08026A   22316.78205802  .00000152  00000+0  93269-4 0  9999
2 32958  98.5242 273.4903 0008067 320.7723  39.2868 14.18760547749258
PRISM (HITOMI)          
1 33493U 09002B   22316.92485533  .00006712  00000+0  52349-3 0  9997
2 33493  98.2517 312.2261 0017833  53.0462 307.2390 15.01410868751242
STARS (KUKAI)           
1 33498U 09002G   22316.70086605  .00002090  00000+0  28023-3 0  9992
2 33498  98.1502 211.0964 0011582 128.2340 231.9916 14.80457808743363
KKS-1 (KISEKI)          
1 33499U 09002H   22316.82977838  .00001128  00000+0  17047-3 0  9998
2 33499  98.1951 201.1708 0008422 192.4317 167.6686 14.76265195742138
NOAA 19                 
1 33591U 09005A   22317.09281296  .00000177  00000+0  12043-3 0  9994
2 33591  99.1318 354.2448 0014665 128.6179 231.6307 14.12636912709430
SWISSCUBE               
1 35932U 09051B   22317.12996305  .00000876  00000+0  20528-3 0  9997
2 35932  98.5469 177.0895 0006827 318.7841  41.2840 14.57074168697786
BEESAT-1                
1 35933U 09051C   22316.87847559  .00000780  00000+0  18404-3 0  9999
2 35933  98.5403 178.3521 0005283 335.9035  24.1915 14.57063883697781
ITUPSAT1                
1 35935U 09051E   22316.84984980  .00000721  00000+0  17432-3 0  9993
2 35935  98.5505 178.3382 0007630 336.5360  23.5487 14.56158131697504
XIWANG-1 (HOPE-1)       
1 36122U 09072B   22316.85767331 -.00000003  00000+0  10391-3 0  9996
2 36122 100.2058 282.8898 0007600   5.1572 354.9619 13.16374126620335
CARTOSAT-2B             
1 36795U 10035A   22317.19521728  .00001066  00000+0  15216-3 0  9999
2 36795  97.9432  15.8266 0014745 120.8837 239.3830 14.78704209666046
TISAT 1                 
1 36799U 10035E   22317.14896875  .00003728  00000+0  35793-3 0  9995
2 36799  98.1617 173.3882 0011050 334.0416  26.0247 14.93691687670152
FENGYUN 3B              
1 37214U 10059A   22317.13328267  .00000066  00000+0  58709-4 0  9993
2 37214  99.0937 325.7601 0021312 297.2519  62.6494 14.14274253621973
JUGNU                   
1 37839U 11058B   22317.14614389  .00000474  00000+0  11026-3 0  9993
2 37839  19.9626 353.5523 0018910 357.1510  35.7223 14.12832217573303
SRMSAT                  
1 37841U 11058D   22316.74288743  .00000435  00000+0  93905-4 0  9996
2 37841  19.9719  78.5361 0011785 172.9440 336.0125 14.10792954572208
M-CUBED & EXP-1 PRIME   
1 37855U 11061F   22316.76564510  .00013867  00000+0  56400-3 0  9997
2 37855 101.7169 154.8957 0144808 337.0225  22.4557 15.15614758603671
HORYU-2                 
1 38340U 12025D   22316.79323067  .00002017  00000+0  29280-3 0  9992
2 38340  98.1853  37.3588 0012430 111.2961 248.9577 14.77089209554136
METOP-B                 
1 38771U 12049A   22317.15073337  .00000128  00000+0  78743-4 0  9999
2 38771  98.7112  14.7884 0000691  57.7927  27.6815 14.21493242526858
SARAL                   
1 39086U 13009A   22317.14325424  .00000089  00000+0  49303-4 0  9998
2 39086  98.5465 140.6006 0001251 137.8113 222.3167 14.32045894507763
AAUSAT 3                
1 39087U 13009B   22317.08191836  .00000861  00000+0  30885-3 0  9992
2 39087  98.3884 152.8562 0012126 179.1187 181.0003 14.36331945508919
STRAND-1                
1 39090U 13009E   22317.06225759  .00000276  00000+0  11110-3 0  9996
2 39090  98.3944 151.2818 0008857 181.7192 178.3965 14.35366737508730
BRITE-AUSTRIA           
1 39091U 13009F   22316.77081266  .00000196  00000+0  83249-4 0  9991
2 39091  98.3965 150.1905 0010165 190.2867 169.8113 14.35327159508700
UNIBRITE                
1 39092U 13009G   22316.52695336  .00000205  00000+0  86493-4 0  9999
2 39092  98.4001 149.7434 0009134 185.4800 174.6287 14.35198552508621
SOMP                    
1 39134U 13015E   22316.56093135  .00028136  00000+0  84624-3 0  9992
2 39134  64.8595 294.2877 0031597 259.9882  99.7686 15.33803920529528
BEESAT-3                
1 39135U 13015F   22316.76503934  .00018251  00000+0  66566-3 0  9990
2 39135  64.8649 333.6259 0037015 262.3319  97.3608 15.27609636528736
BEESAT-2                
1 39136U 13015G   22317.18051401  .00014934  00000+0  57459-3 0  9990
2 39136  64.8741 341.3909 0024945 292.9343  66.9155 15.26303918529061
NEE-01 PEGASO           
1 39151U 13018B   22316.73388369  .00001989  00000+0  26066-3 0  9992
2 39151  97.9998  61.9878 0017648 132.0688 228.2029 14.81375767515628
CUBEBUG-1 (CAPITAN BETO)
1 39153U 13018D   22316.79616986  .00002313  00000+0  29661-3 0  9995
2 39153  98.0245  67.0618 0017478 126.7474 233.5347 14.82154591515803
